CCSDS_OMM_VERS = 2.0
CREATION_DATE  = 
ORIGINATOR     = 

OBJECT_NAME    = STARLINK-36674
OBJECT_ID      = 2026-022P
CENTER_NAME    = EARTH
REF_FRAME      = TEME
TIME_SYSTEM    = UTC
MEAN_ELEMENT_THEORY = SGP/SGP4

EPOCH          = 2026-02-24T18:01:30.927360
MEAN_MOTION    = 15.75253318
ECCENTRICITY   = .00015671
INCLINATION    = 97.2845
RA_OF_ASC_NODE = 89.1125
ARG_OF_PERICENTER = 106.4340
MEAN_ANOMALY   = 253.7098

EPHEMERIS_TYPE = 0
CLASSIFICATION_TYPE = U
NORAD_CAT_ID   = 67661
ELEMENT_SET_NO = 999
REV_AT_EPOCH   = 351
BSTAR          = .16220153E-2
MEAN_MOTION_DOT = .249696E-2
MEAN_MOTION_DDOT = 0

CCSDS_OMM_VERS = 2.0
CREATION_DATE  = 
ORIGINATOR     = 

OBJECT_NAME    = STARLINK-36700
OBJECT_ID      = 2026-022Q
CENTER_NAME    = EARTH
REF_FRAME      = TEME
TIME_SYSTEM    = UTC
MEAN_ELEMENT_THEORY = SGP/SGP4

EPOCH          = 2026-02-24T19:29:56.624352
MEAN_MOTION    = 15.75217472
ECCENTRICITY   = .00010547
INCLINATION    = 97.2848
RA_OF_ASC_NODE = 89.1821
ARG_OF_PERICENTER = 52.2949
MEAN_ANOMALY   = 307.8412

EPHEMERIS_TYPE = 0
CLASSIFICATION_TYPE = U
NORAD_CAT_ID   = 67662
ELEMENT_SET_NO = 999
REV_AT_EPOCH   = 352
BSTAR          = .17950953E-2
MEAN_MOTION_DOT = .276815E-2
MEAN_MOTION_DDOT = 0

CCSDS_OMM_VERS = 2.0
CREATION_DATE  = 
ORIGINATOR     = 

OBJECT_NAME    = STARLINK-36675
OBJECT_ID      = 2026-022R
CENTER_NAME    = EARTH
REF_FRAME      = TEME
TIME_SYSTEM    = UTC
MEAN_ELEMENT_THEORY = SGP/SGP4

EPOCH          = 2026-02-24T19:31:58.793952
MEAN_MOTION    = 15.75304882
ECCENTRICITY   = .00015933
INCLINATION    = 97.2842
RA_OF_ASC_NODE = 89.1803
ARG_OF_PERICENTER = 57.8306
MEAN_ANOMALY   = 302.3114

EPHEMERIS_TYPE = 0
CLASSIFICATION_TYPE = U
NORAD_CAT_ID   = 67663
ELEMENT_SET_NO = 999
REV_AT_EPOCH   = 352
BSTAR          = .19907666E-2
MEAN_MOTION_DOT = .309352E-2
MEAN_MOTION_DDOT = 0

CCSDS_OMM_VERS = 2.0
CREATION_DATE  = 
ORIGINATOR     = 

OBJECT_NAME    = STARLINK-36404
OBJECT_ID      = 2026-022S
CENTER_NAME    = EARTH
REF_FRAME      = TEME
TIME_SYSTEM    = UTC
MEAN_ELEMENT_THEORY = SGP/SGP4

EPOCH          = 2026-02-24T19:27:24.404832
MEAN_MOTION    = 15.75246069
ECCENTRICITY   = .0001617
INCLINATION    = 97.2849
RA_OF_ASC_NODE = 89.1837
ARG_OF_PERICENTER = 94.5064
MEAN_ANOMALY   = 265.6386

EPHEMERIS_TYPE = 0
CLASSIFICATION_TYPE = U
NORAD_CAT_ID   = 67664
ELEMENT_SET_NO = 999
REV_AT_EPOCH   = 352
BSTAR          = .11717727E-2
MEAN_MOTION_DOT = .178789E-2
MEAN_MOTION_DDOT = 0

CCSDS_OMM_VERS = 2.0
CREATION_DATE  = 
ORIGINATOR     = 

OBJECT_NAME    = STARLINK-36399
OBJECT_ID      = 2026-022T
CENTER_NAME    = EARTH
REF_FRAME      = TEME
TIME_SYSTEM    = UTC
MEAN_ELEMENT_THEORY = SGP/SGP4

EPOCH          = 2026-02-24T19:26:24.222048
MEAN_MOTION    = 15.75208016
ECCENTRICITY   = .00016314
INCLINATION    = 97.2855
RA_OF_ASC_NODE = 89.1854
ARG_OF_PERICENTER = 107.0796
MEAN_ANOMALY   = 253.0648

EPHEMERIS_TYPE = 0
CLASSIFICATION_TYPE = U
NORAD_CAT_ID   = 67665
ELEMENT_SET_NO = 999
REV_AT_EPOCH   = 352
BSTAR          = .10196469E-2
MEAN_MOTION_DOT = .154868E-2
MEAN_MOTION_DDOT = 0

CCSDS_OMM_VERS = 2.0
CREATION_DATE  = 
ORIGINATOR     = 

OBJECT_NAME    = STARLINK-36365
OBJECT_ID      = 2026-022U
CENTER_NAME    = EARTH
REF_FRAME      = TEME
TIME_SYSTEM    = UTC
MEAN_ELEMENT_THEORY = SGP/SGP4

EPOCH          = 2026-02-24T17:52:52.574016
MEAN_MOTION    = 15.75273810
ECCENTRICITY   = .0001264
INCLINATION    = 97.2847
RA_OF_ASC_NODE = 89.1199
ARG_OF_PERICENTER = 96.2811
MEAN_ANOMALY   = 263.8599

EPHEMERIS_TYPE = 0
CLASSIFICATION_TYPE = U
NORAD_CAT_ID   = 67666
ELEMENT_SET_NO = 999
REV_AT_EPOCH   = 351
BSTAR          = .13928235E-2
MEAN_MOTION_DOT = .213673E-2
MEAN_MOTION_DDOT = 0

CCSDS_OMM_VERS = 2.0
CREATION_DATE  = 
ORIGINATOR     = 

OBJECT_NAME    = STARLINK-36622
OBJECT_ID      = 2026-022V
CENTER_NAME    = EARTH
REF_FRAME      = TEME
TIME_SYSTEM    = UTC
MEAN_ELEMENT_THEORY = SGP/SGP4

EPOCH          = 2026-02-24T17:50:20.138496
MEAN_MOTION    = 15.75279899
ECCENTRICITY   = .00013617
INCLINATION    = 97.2847
RA_OF_ASC_NODE = 89.1230
ARG_OF_PERICENTER = 91.6473
MEAN_ANOMALY   = 268.4948

EPHEMERIS_TYPE = 0
CLASSIFICATION_TYPE = U
NORAD_CAT_ID   = 67667
ELEMENT_SET_NO = 999
REV_AT_EPOCH   = 351
BSTAR          = .1447526E-2
MEAN_MOTION_DOT = .222356E-2
MEAN_MOTION_DDOT = 0

CCSDS_OMM_VERS = 2.0
CREATION_DATE  = 
ORIGINATOR     = 

OBJECT_NAME    = STARLINK-36625
OBJECT_ID      = 2026-022W
CENTER_NAME    = EARTH
REF_FRAME      = TEME
TIME_SYSTEM    = UTC
MEAN_ELEMENT_THEORY = SGP/SGP4

EPOCH          = 2026-02-24T13:13:51.455136
MEAN_MOTION    = 15.75302450
ECCENTRICITY   = .0001215
INCLINATION    = 97.2848
RA_OF_ASC_NODE = 88.9246
ARG_OF_PERICENTER = 254.4103
MEAN_ANOMALY   = 105.7028

EPHEMERIS_TYPE = 0
CLASSIFICATION_TYPE = U
NORAD_CAT_ID   = 67668
ELEMENT_SET_NO = 999
REV_AT_EPOCH   = 348
BSTAR          = .17109E-2
MEAN_MOTION_DOT = .264412E-2
MEAN_MOTION_DDOT = 0

CCSDS_OMM_VERS = 2.0
CREATION_DATE  = 
ORIGINATOR     = 

OBJECT_NAME    = STARLINK-36639
OBJECT_ID      = 2026-022X
CENTER_NAME    = EARTH
REF_FRAME      = TEME
TIME_SYSTEM    = UTC
MEAN_ELEMENT_THEORY = SGP/SGP4

EPOCH          = 2026-02-24T16:14:17.150496
MEAN_MOTION    = 15.75267265
ECCENTRICITY   = .00017977
INCLINATION    = 97.2849
RA_OF_ASC_NODE = 89.0599
ARG_OF_PERICENTER = 106.6334
MEAN_ANOMALY   = 253.5129

EPHEMERIS_TYPE = 0
CLASSIFICATION_TYPE = U
NORAD_CAT_ID   = 67669
ELEMENT_SET_NO = 999
REV_AT_EPOCH   = 350
BSTAR          = .14363586E-2
MEAN_MOTION_DOT = .220473E-2
MEAN_MOTION_DDOT = 0

CCSDS_OMM_VERS = 2.0
CREATION_DATE  = 
ORIGINATOR     = 

OBJECT_NAME    = STARLINK-36596
OBJECT_ID      = 2026-022Y
CENTER_NAME    = EARTH
REF_FRAME      = TEME
TIME_SYSTEM    = UTC
MEAN_ELEMENT_THEORY = SGP/SGP4

EPOCH          = 2026-02-24T17:43:13.565280
MEAN_MOTION    = 15.75283696
ECCENTRICITY   = .00018394
INCLINATION    = 97.2849
RA_OF_ASC_NODE = 89.1290
ARG_OF_PERICENTER = 98.3952
MEAN_ANOMALY   = 261.7522

EPHEMERIS_TYPE = 0
CLASSIFICATION_TYPE = U
NORAD_CAT_ID   = 67670
ELEMENT_SET_NO = 999
REV_AT_EPOCH   = 351
BSTAR          = .19028175E-2
MEAN_MOTION_DOT = .294904E-2
MEAN_MOTION_DDOT = 0

CCSDS_OMM_VERS = 2.0
CREATION_DATE  = 
ORIGINATOR     = 

OBJECT_NAME    = STARLINK-36297
OBJECT_ID      = 2026-022Z
CENTER_NAME    = EARTH
REF_FRAME      = TEME
TIME_SYSTEM    = UTC
MEAN_ELEMENT_THEORY = SGP/SGP4

EPOCH          = 2026-02-24T20:43:07.884480
MEAN_MOTION    = 15.75267608
ECCENTRICITY   = .00013655
INCLINATION    = 97.2848
RA_OF_ASC_NODE = 89.2650
ARG_OF_PERICENTER = 94.5475
MEAN_ANOMALY   = 265.5947

EPHEMERIS_TYPE = 0
CLASSIFICATION_TYPE = U
NORAD_CAT_ID   = 67671
ELEMENT_SET_NO = 999
REV_AT_EPOCH   = 353
BSTAR          = .14318885E-2
MEAN_MOTION_DOT = .219769E-2
MEAN_MOTION_DDOT = 0

CCSDS_OMM_VERS = 2.0
CREATION_DATE  = 
ORIGINATOR     = 

OBJECT_NAME    = STARLINK-36616
OBJECT_ID      = 2026-022AA
CENTER_NAME    = EARTH
REF_FRAME      = TEME
TIME_SYSTEM    = UTC
MEAN_ELEMENT_THEORY = SGP/SGP4

EPOCH          = 2026-02-24T17:42:12.428640
MEAN_MOTION    = 15.75240222
ECCENTRICITY   = .00013961
INCLINATION    = 97.2851
RA_OF_ASC_NODE = 89.1298
ARG_OF_PERICENTER = 106.9864
MEAN_ANOMALY   = 253.1554

EPHEMERIS_TYPE = 0
CLASSIFICATION_TYPE = U
NORAD_CAT_ID   = 67672
ELEMENT_SET_NO = 999
REV_AT_EPOCH   = 351
BSTAR          = .95352181E-3
MEAN_MOTION_DOT = .144845E-2
MEAN_MOTION_DDOT = 0

