STARLINK-36674          
1 67661U 26022P   26055.75105240  .00249696  00000+0  16220-2 0  9998
2 67661  97.2845  89.1125 0001567 106.4340 253.7098 15.75253318  3519
STARLINK-36700          
1 67662U 26022Q   26055.81246093  .00276815  00000+0  17951-2 0  9993
2 67662  97.2848  89.1821 0001054  52.2949 307.8412 15.75217472  3523
STARLINK-36675          
1 67663U 26022R   26055.81387493  .00309352  00000+0  19908-2 0  9991
2 67663  97.2842  89.1803 0001593  57.8306 302.3114 15.75304882  3525
STARLINK-36404          
1 67664U 26022S   26055.81069913  .00178789  00000+0  11718-2 0  9995
2 67664  97.2849  89.1837 0001617  94.5064 265.6386 15.75246069  3520
STARLINK-36399          
1 67665U 26022T   26055.81000257  .00154868  00000+0  10196-2 0  9993
2 67665  97.2855  89.1854 0001631 107.0796 253.0648 15.75208016  3527
STARLINK-36365          
1 67666U 26022U   26055.74505294  .00213673  00000+0  13928-2 0  9993
2 67666  97.2847  89.1199 0001264  96.2811 263.8599 15.75273810  3517
STARLINK-36622          
1 67667U 26022V   26055.74328864  .00222356  00000+0  14475-2 0  9996
2 67667  97.2847  89.1230 0001361  91.6473 268.4948 15.75279899  3517
STARLINK-36625          
1 67668U 26022W   26055.55128999  .00264412  00000+0  17109-2 0  9999
2 67668  97.2848  88.9246 0001215 254.4103 105.7028 15.75302450  3488
STARLINK-36639          
1 67669U 26022X   26055.67658739  .00220473  00000+0  14364-2 0  9992
2 67669  97.2849  89.0599 0001797 106.6334 253.5129 15.75267265  3503
STARLINK-36596          
1 67670U 26022Y   26055.73835145  .00294904  00000+0  19028-2 0  9991
2 67670  97.2849  89.1290 0001839  98.3952 261.7522 15.75283696  3519
STARLINK-36297          
1 67671U 26022Z   26055.86328570  .00219769  00000+0  14319-2 0  9999
2 67671  97.2848  89.2650 0001365  94.5475 265.5947 15.75267608  3532
STARLINK-36616          
1 67672U 26022AA  26055.73764385  .00144845  00000+0  95352-3 0  9993
2 67672  97.2851  89.1298 0001396 106.9864 253.1554 15.75240222  3516
